NUSAT-50 (NANCY ROMAN)  
1 60493U 24149AB  26068.80227738  .00012094  00000+0  42252-3 0  9994
2 60493  97.3817 150.7693 0002523 238.0469 122.0527 15.29713355 86930
STARLINK-35037          
1 65483U 25195AB  26068.81297076  .00019275  00000+0  66154-3 0  9998
2 65483  53.1574 257.5024 0001190  91.5872 268.5265 15.30184934 29992
